{
    "links": {
        "self": "http://www.neowsapp.com/rest/v1/neo/3669248?api_key=iIulBulltgU6a56xZRHN4H3l9WmuAYTsLGpBGhQ2"
    },
    "id": "3669248",
    "neo_reference_id": "3669248",
    "name": "(2014 HE124)",
    "designation": "2014 HE124",
    "nasa_jpl_url": "http://ssd.jpl.nasa.gov/sbdb.cgi?sstr=3669248",
    "absolute_magnitude_h": 22.0,
    "estimated_diameter": {
        "kilometers": {
            "estimated_diameter_min": 0.1058168859,
            "estimated_diameter_max": 0.2366137501
        },
        "meters": {
            "estimated_diameter_min": 105.8168859331,
            "estimated_diameter_max": 236.6137501138
        },
        "miles": {
            "estimated_diameter_min": 0.0657515442,
            "estimated_diameter_max": 0.1470249225
        },
        "feet": {
            "estimated_diameter_min": 347.1682720448,
            "estimated_diameter_max": 776.2918559233
        }
    },
    "is_potentially_hazardous_asteroid": true,
    "close_approach_data": [
        {
            "close_approach_date": "2014-04-10",
            "close_approach_date_full": "2014-Apr-10 13:09",
            "epoch_date_close_approach": 1397135340000,
            "relative_velocity": {
                "kilometers_per_second": "32.6641879139",
                "kilometers_per_hour": "117591.0764900562",
                "miles_per_hour": "73066.521944613"
            },
            "miss_distance": {
                "astronomical": "0.0866118042",
                "lunar": "33.6919918338",
                "kilometers": "12956941.425177054",
                "miles": "8051070.0685251852"
            },
            "orbiting_body": "Earth"
        }
    ],
    "orbital_data": {
        "orbit_id": "7",
        "orbit_determination_date": "2019-03-15 07:26:26",
        "first_observation_date": "2014-04-24",
        "last_observation_date": "2014-05-04",
        "data_arc_in_days": 10,
        "observations_used": 31,
        "orbit_uncertainty": "8",
        "minimum_orbit_intersection": ".0436733",
        "jupiter_tisserand_invariant": "3.270",
        "epoch_osculation": "2456775.5",
        "eccentricity": ".8487424045299814",
        "semi_major_axis": "1.959570175342768",
        "inclination": "18.73606482699973",
        "ascending_node_longitude": "204.3428115065848",
        "orbital_period": "1001.935254598993",
        "perihelion_distance": ".2963998728771098",
        "perihelion_argument": "229.7836014272408",
        "aphelion_distance": "3.622740477808426",
        "perihelion_time": "2456716.820971365690",
        "mean_anomaly": "21.08364808143845",
        "mean_motion": ".3593046540158763",
        "equinox": "J2000",
        "orbit_class": {
            "orbit_class_type": "APO",
            "orbit_class_description": "Near-Earth asteroid orbits which cross the Earth’s orbit similar to that of 1862 Apollo",
            "orbit_class_range": "a (semi-major axis) > 1.0 AU; q (perihelion) < 1.017 AU"
        }
    },
    "is_sentry_object": false
}